OBJECT_NAME,OBJECT_ID,EPOCH,MEAN_MOTION,ECCENTRICITY,INCLINATION,RA_OF_ASC_NODE,ARG_OF_PERICENTER,MEAN_ANOMALY,EPHEMERIS_TYPE,CLASSIFICATION_TYPE,NORAD_CAT_ID,ELEMENT_SET_NO,REV_AT_EPOCH,BSTAR,MEAN_MOTION_DOT,MEAN_MOTION_DDOT
FLOCK 4BE-29,2024-149AT,2026-07-02T11:18:31.908096,15.44652442,.00024303,97.3812,269.5789,207.9338,152.1781,0,U,60509,999,10477,.44527364E-3,.20687E-3,0
TRANSPORTER-11 OBJECT AU,2024-149AU,2026-07-02T04:38:45.065760,15.40644890,.00030533,97.3734,267.0374,212.9606,147.1450,0,U,60510,999,10462,.42358601E-3,.17197E-3,0
FLOCK 4BE-2,2024-149AV,2026-07-02T12:26:07.844640,15.54468689,.00047333,97.3831,271.2678,204.9430,155.1595,0,U,60511,999,10488,.10991667E-2,.72753E-3,0
FLOCK 4BE-13,2024-149AW,2026-07-02T12:50:06.557568,15.42301617,.00040888,97.3722,268.1092,194.9485,165.1642,0,U,60512,999,10473,.34064626E-3,.14593E-3,0
FLOCK 4BE-27,2024-149AX,2026-07-02T04:36:37.020960,15.34709682,.00027317,97.3827,265.0524,232.7723,127.3271,0,U,60513,999,10444,.32681455E-3,.10919E-3,0
FLOCK 4BE-9,2024-149AY,2026-07-02T13:04:13.217952,15.41255834,.00024623,97.3793,267.9691,210.6017,149.5086,0,U,60514,999,10468,.39532388E-3,.16369E-3,0
FLOCK 4BE-6,2024-149BA,2026-07-02T04:41:58.492896,15.39993419,.00030456,97.3792,266.9464,217.0665,143.0371,0,U,60516,999,10458,.43862849E-3,.17433E-3,0
FLOCK 4BE-14,2024-149BB,2026-07-02T11:45:40.872096,15.41487613,.0004064,97.3695,267.3934,219.5234,140.5717,0,U,60517,999,10468,.46999059E-3,.19639E-3,0
FLOCK 4BE-1,2024-149BC,2026-07-02T03:58:38.061984,15.43104379,.00038172,97.3782,268.3976,220.0575,140.0391,0,U,60518,999,10468,.48720463E-3,.21496E-3,0
FLOCK 4BE-28,2024-149BD,2026-07-02T13:06:08.510112,15.45447882,.00038856,97.3750,269.5550,212.3345,147.7666,0,U,60519,999,10481,.40790219E-3,.19463E-3,0
IPERDRONE.0,2024-149BE,2026-07-02T05:48:55.260000,15.68991104,.00042836,97.3779,277.2205,193.8898,166.2246,0,U,60520,999,10527,.81106146E-3,.94173E-3,0
TRANSPORTER-11 OBJECT BF,2024-149BF,2026-07-02T05:53:28.036896,15.94024805,.00068211,97.3711,280.4429,232.0544,128.0115,0,U,60521,999,10547,.12398795E-2,.453442E-2,.83526877E-4
CONNECTA IOT-2,2024-149BG,2026-07-02T11:28:41.168928,15.24103599,.00048195,97.3838,261.3928,268.9684,91.1002,0,U,60522,999,10422,.22901758E-3,.5495E-4,0
CONNECTA IOT-4,2024-149BJ,2026-07-02T04:38:53.233152,15.42713951,.00049101,97.3800,267.7462,220.1205,139.9680,0,U,60524,999,10464,.54016662E-3,.23542E-3,0
ORESAT0.5,2024-149BK,2026-07-02T04:56:04.126848,15.45654190,.00050705,97.3730,269.4410,209.2676,150.8290,0,U,60525,999,10479,.47559357E-3,.22883E-3,0
DEIMOS,2024-149BL,2026-07-02T12:07:45.139584,15.44776747,.00049602,97.3785,269.8779,214.2987,145.7942,0,U,60526,999,10481,.46241307E-3,.21587E-3,0
CUAVA-2,2024-149BM,2026-07-02T04:39:56.106432,15.36463691,.00057209,97.3727,264.7416,228.1197,131.9559,0,U,60527,999,10447,.39469022E-3,.13976E-3,0
ERNST,2024-149BN,2026-07-02T12:15:03.150432,15.39610069,.00050445,97.3808,267.3483,226.3529,133.7299,0,U,60528,999,10463,.40558653E-3,.15912E-3,0
TORO,2024-149BQ,2026-07-02T03:37:26.494176,14.96476353,.00014593,97.6779,257.5395,98.9397,261.1990,0,U,60530,999,10219,.25094529E-3,.2792E-4,0
HYPSO-2,2024-149BR,2026-07-02T11:44:00.787200,14.98867281,.00015693,97.6816,259.5254,116.9924,243.1459,0,U,60531,999,10234,.32776981E-3,.39E-4,0
LEMU NGE,2024-149BS,2026-07-02T10:41:44.109024,14.95018981,.00012698,97.6840,258.0971,51.9751,308.1584,0,U,60532,999,10223,.20456063E-3,.2181E-4,0
LEMUR-2-STELLA,2024-149BT,2026-07-02T04:06:22.244256,15.12128587,.00011481,97.6740,265.6937,101.5384,258.5975,0,U,60533,999,10276,.78521518E-3,.13479E-3,0
SATELIOT_2,2024-149BU,2026-07-02T11:21:15.404544,14.96415016,.00016261,97.6818,258.1505,89.1598,270.9809,0,U,60534,999,10225,.22751698E-3,.2522E-4,0
NIGHTJAR,2024-149BV,2026-07-02T11:28:19.605216,14.99099552,.00014449,97.6827,259.9701,117.3948,242.7422,0,U,60535,999,14516,.32856039E-3,.3933E-4,0
LEMUR-2-MARHISYAM,2024-149BW,2026-07-02T11:42:38.225088,15.11560020,.00032681,97.6884,266.4769,90.7390,269.4214,0,U,60536,999,10279,.67229523E-3,.11348E-3,0
SATELIOT_4,2024-149BX,2026-07-02T11:32:23.299872,14.96720026,.0001882,97.6733,257.6748,31.7719,328.3616,0,U,60537,999,10226,.21947163E-3,.245E-4,0
PICO-02A021,2024-149BY,2026-07-02T11:24:37.723968,15.03402040,.00036392,97.6761,262.1774,349.8037,10.3113,0,U,60538,999,10203,.45448052E-3,.6122E-4,0
ICEYE-X43,2024-149BZ,2026-07-02T04:11:41.090496,14.99728540,.00076556,97.6823,259.9372,39.0267,321.1508,0,U,60539,999,10236,.35086265E-3,.4276E-4,0
HAWK-10A,2024-149CA,2026-07-02T13:09:07.504992,14.96559032,.00039425,97.6888,259.1954,42.5385,317.6142,0,U,60540,999,10228,.18321833E-3,.2027E-4,0
UMBRA-09,2024-149CB,2026-07-02T11:45:04.494240,15.18509183,.0001384,97.6975,270.9611,230.0292,130.0820,0,U,60541,999,10304,.86496124E-3,.17805E-3,0
