FLOCK 4BE-29            
1 60509U 24149AT  26183.47120264  .00020687  00000+0  44527-3 0  9993
2 60509  97.3812 269.5789 0002430 207.9338 152.1781 15.44652442104770
TRANSPORTER-11 OBJECT AU
1 60510U 24149AU  26183.19357715  .00017197  00000+0  42359-3 0  9990
2 60510  97.3734 267.0374 0003053 212.9606 147.1450 15.40644890104629
FLOCK 4BE-2             
1 60511U 24149AV  26183.51814635  .00072753  00000+0  10992-2 0  9992
2 60511  97.3831 271.2678 0004733 204.9430 155.1595 15.54468689104886
FLOCK 4BE-13            
1 60512U 24149AW  26183.53479812  .00014593  00000+0  34065-3 0  9995
2 60512  97.3722 268.1092 0004088 194.9485 165.1642 15.42301617104734
FLOCK 4BE-27            
1 60513U 24149AX  26183.19209515  .00010919  00000+0  32681-3 0  9999
2 60513  97.3827 265.0524 0002731 232.7723 127.3271 15.34709682104447
FLOCK 4BE-9             
1 60514U 24149AY  26183.54459743  .00016369  00000+0  39532-3 0  9996
2 60514  97.3793 267.9691 0002462 210.6017 149.5086 15.41255834104687
FLOCK 4BE-6             
1 60516U 24149BA  26183.19581589  .00017433  00000+0  43863-3 0  9998
2 60516  97.3792 266.9464 0003045 217.0665 143.0371 15.39993419104583
FLOCK 4BE-14            
1 60517U 24149BB  26183.49005639  .00019639  00000+0  46999-3 0  9992
2 60517  97.3695 267.3934 0004064 219.5234 140.5717 15.41487613104688
FLOCK 4BE-1             
1 60518U 24149BC  26183.16571831  .00021496  00000+0  48720-3 0  9997
2 60518  97.3782 268.3976 0003817 220.0575 140.0391 15.43104379104683
FLOCK 4BE-28            
1 60519U 24149BD  26183.54593183  .00019463  00000+0  40790-3 0  9994
2 60519  97.3750 269.5550 0003885 212.3345 147.7666 15.45447882104819
IPERDRONE.0             
1 60520U 24149BE  26183.24230625  .00094173  00000+0  81106-3 0  9999
2 60520  97.3779 277.2205 0004283 193.8898 166.2246 15.68991104105271
TRANSPORTER-11 OBJECT BF
1 60521U 24149BF  26183.24546339  .00453442  83527-4  12399-2 0  9997
2 60521  97.3711 280.4429 0006821 232.0544 128.0115 15.94024805105473
CONNECTA IOT-2          
1 60522U 24149BG  26183.47825427  .00005495  00000+0  22902-3 0  9994
2 60522  97.3838 261.3928 0004819 268.9684  91.1002 15.24103599104222
CONNECTA IOT-4          
1 60524U 24149BJ  26183.19367168  .00023542  00000+0  54017-3 0  9993
2 60524  97.3800 267.7462 0004910 220.1205 139.9680 15.42713951104645
ORESAT0.5               
1 60525U 24149BK  26183.20560332  .00022883  00000+0  47559-3 0  9994
2 60525  97.3730 269.4410 0005070 209.2676 150.8290 15.45654190104795
DEIMOS                  
1 60526U 24149BL  26183.50538356  .00021587  00000+0  46241-3 0  9996
2 60526  97.3785 269.8779 0004960 214.2987 145.7942 15.44776747104818
CUAVA-2                 
1 60527U 24149BM  26183.19439938  .00013976  00000+0  39469-3 0  9995
2 60527  97.3727 264.7416 0005720 228.1197 131.9559 15.36463691104474
ERNST                   
1 60528U 24149BN  26183.51045313  .00015912  00000+0  40559-3 0  9996
2 60528  97.3808 267.3483 0005044 226.3529 133.7299 15.39610069104631
TORO                    
1 60530U 24149BQ  26183.15100109  .00002792  00000+0  25095-3 0  9994
2 60530  97.6779 257.5395 0001459  98.9397 261.1990 14.96476353102190
HYPSO-2                 
1 60531U 24149BR  26183.48889800  .00003900  00000+0  32777-3 0  9990
2 60531  97.6816 259.5254 0001569 116.9924 243.1459 14.98867281102341
LEMU NGE                
1 60532U 24149BS  26183.44564941  .00002181  00000+0  20456-3 0  9994
2 60532  97.6840 258.0971 0001269  51.9751 308.1584 14.95018981102233
LEMUR-2-STELLA          
1 60533U 24149BT  26183.17109079  .00013479  00000+0  78522-3 0  9991
2 60533  97.6740 265.6937 0001148 101.5384 258.5975 15.12128587102763
SATELIOT_2              
1 60534U 24149BU  26183.47309496  .00002522  00000+0  22752-3 0  9991
2 60534  97.6818 258.1505 0001626  89.1598 270.9809 14.96415016102252
NIGHTJAR                
1 60535U 24149BV  26183.47800469  .00003933  00000+0  32856-3 0  9991
2 60535  97.6827 259.9701 0001444 117.3948 242.7422 14.99099552145162
LEMUR-2-MARHISYAM       
1 60536U 24149BW  26183.48794242  .00011348  00000+0  67230-3 0  9997
2 60536  97.6884 266.4769 0003268  90.7390 269.4214 15.11560020102799
SATELIOT_4              
1 60537U 24149BX  26183.48082523  .00002450  00000+0  21947-3 0  9999
2 60537  97.6733 257.6748 0001882  31.7719 328.3616 14.96720026102261
PICO-02A021             
1 60538U 24149BY  26183.47543662  .00006122  00000+0  45448-3 0  9997
2 60538  97.6761 262.1774 0003639 349.8037  10.3113 15.03402040102038
ICEYE-X43               
1 60539U 24149BZ  26183.17478114  .00004276  00000+0  35086-3 0  9999
2 60539  97.6823 259.9372 0007655  39.0267 321.1508 14.99728540102368
HAWK-10A                
1 60540U 24149CA  26183.54800353  .00002027  00000+0  18322-3 0  9992
2 60540  97.6888 259.1954 0003942  42.5385 317.6142 14.96559032102284
UMBRA-09                
1 60541U 24149CB  26183.48963535  .00017805  00000+0  86496-3 0  9995
2 60541  97.6975 270.9611 0001384 230.0292 130.0820 15.18509183103044
